{"type": "FeatureCollection", "features": [ {"type": "Feature", "properties": {"norad_id": 33153, "name": "INTELSAT 25 (IS-25)", "group": "intelsat", "lat": 1.7021586990541424, "lon": -147.80915633749856, "alt_km": 35774.07241054708, "timestamp": "2025-12-11T10:53:15.553183+00:00", "meta": {"OBJECT_NAME": "INTELSAT 25 (IS-25)", "OBJECT_ID": "2008-034A", "EPOCH": "2025-12-11T03:09:09.155808", "MEAN_MOTION": 1.00270103, "ECCENTRICITY": 0.0005334, "INCLINATION": 2.2239, "RA_OF_ASC_NODE": 82.6668, "ARG_OF_PERICENTER": 186.6267, "MEAN_ANOMALY": 186.5862, "EPHEMERIS_TYPE": 0, "CLASSIFICATION_TYPE": "U", "NORAD_CAT_ID": 33153, "ELEMENT_SET_NO": 999, "REV_AT_EPOCH": 6381, "BSTAR": 0, "MEAN_MOTION_DOT": -2.18e-06, "MEAN_MOTION_DDOT": 0}, "tle": {"line1": "1 33153U 08034A   25345.13135597 -.00000218  00000+0  00000+0 0  9993", "line2": "2 33153   2.2239  82.6668 0005334 186.6267 186.5862  1.00270103 63810"}}, "geometry": {"type": "Point", "coordinates": [-147.80915633749856, 1.7021586990541424]}}, {"type": "Feature", "properties": {"norad_id": 33376, "name": "GALAXY 19 (G-19)", "group": "intelsat", "lat": 0.009237387772704476, "lon": 146.6968087235019, "alt_km": 35791.27070702454, "timestamp": "2025-12-11T10:53:15.553200+00:00", "meta": {"OBJECT_NAME": "GALAXY 19 (G-19)", "OBJECT_ID": "2008-045A", "EPOCH": "2025-12-11T05:00:38.584224", "MEAN_MOTION": 1.00269711, "ECCENTRICITY": 0.0002698, "INCLINATION": 0.0167, "RA_OF_ASC_NODE": 344.1002, "ARG_OF_PERICENTER": 276.3628, "MEAN_ANOMALY": 157.8728, "EPHEMERIS_TYPE": 0, "CLASSIFICATION_TYPE": "U", "NORAD_CAT_ID": 33376, "ELEMENT_SET_NO": 999, "REV_AT_EPOCH": 6301, "BSTAR": 0, "MEAN_MOTION_DOT": 0, "MEAN_MOTION_DDOT": 0}, "tle": {"line1": "1 33376U 08045A   25345.20877991  .00000000  00000+0  00000+0 0  9999", "line2": "2 33376   0.0167 344.1002 0002698 276.3628 157.8728  1.00269711 63016"}}, "geometry": {"type": "Point", "coordinates": [146.6968087235019, 0.009237387772704476]}}, {"type": "Feature", "properties": {"norad_id": 35493, "name": "FM-5", "group": "intelsat", "lat": -0.012517765431914107, "lon": 157.57817204106533, "alt_km": 35784.18499643051, "timestamp": "2025-12-11T10:53:15.553213+00:00", "meta": {"OBJECT_NAME": "FM-5", "OBJECT_ID": "2009-034A", "EPOCH": "2025-12-11T04:52:38.652960", "MEAN_MOTION": 1.00270578, "ECCENTRICITY": 5.47e-05, "INCLINATION": 0.0153, "RA_OF_ASC_NODE": 293.7134, "ARG_OF_PERICENTER": 234.7346, "MEAN_ANOMALY": 258.736, "EPHEMERIS_TYPE": 0, "CLASSIFICATION_TYPE": "U", "NORAD_CAT_ID": 35493, "ELEMENT_SET_NO": 999, "REV_AT_EPOCH": 4475, "BSTAR": 0, "MEAN_MOTION_DOT": -1.94e-06, "MEAN_MOTION_DDOT": 0}, "tle": {"line1": "1 35493U 09034A   25345.20322515 -.00000194  00000+0  00000+0 0  9992", "line2": "2 35493   0.0153 293.7134 0000547 234.7346 258.7360  1.00270578 44750"}}, "geometry": {"type": "Point", "coordinates": [157.57817204106533, -0.012517765431914107]}}, {"type": "Feature", "properties": {"norad_id": 36097, "name": "INTELSAT 14 (IS-14)", "group": "intelsat", "lat": -0.00755846185675613, "lon": -161.30689964305998, "alt_km": 35782.82770995454, "timestamp": "2025-12-11T10:53:15.553226+00:00", "meta": {"OBJECT_NAME": "INTELSAT 14 (IS-14)", "OBJECT_ID": "2009-064A", "EPOCH": "2025-12-11T00:50:38.713920", "MEAN_MOTION": 1.00270021, "ECCENTRICITY": 0.000261, "INCLINATION": 0.0102, "RA_OF_ASC_NODE": 18.0466, "ARG_OF_PERICENTER": 250.6315, "MEAN_ANOMALY": 138.984, "EPHEMERIS_TYPE": 0, "CLASSIFICATION_TYPE": "U", "NORAD_CAT_ID": 36097, "ELEMENT_SET_NO": 999, "REV_AT_EPOCH": 5871, "BSTAR": 0, "MEAN_MOTION_DOT": -2.68e-06, "MEAN_MOTION_DDOT": 0}, "tle": {"line1": "1 36097U 09064A   25345.03517030 -.00000268  00000+0  00000+0 0  9997", "line2": "2 36097   0.0102  18.0466 0002610 250.6315 138.9840  1.00270021 58713"}}, "geometry": {"type": "Point", "coordinates": [-161.30689964305998, -0.00755846185675613]}}, {"type": "Feature", "properties": {"norad_id": 36106, "name": "INTELSAT 15 (IS-15)", "group": "intelsat", "lat": 0.013956884688842949, "lon": -31.10734639794877, "alt_km": 35781.31162948842, "timestamp": "2025-12-11T10:53:15.553237+00:00", "meta": {"OBJECT_NAME": "INTELSAT 15 (IS-15)", "OBJECT_ID": "2009-067A", "EPOCH": "2025-12-11T01:39:38.885184", "MEAN_MOTION": 1.00270749, "ECCENTRICITY": 0.0002387, "INCLINATION": 0.024, "RA_OF_ASC_NODE": 289.4565, "ARG_OF_PERICENTER": 339.7099, "MEAN_ANOMALY": 280.9264, "EPHEMERIS_TYPE": 0, "CLASSIFICATION_TYPE": "U", "NORAD_CAT_ID": 36106, "ELEMENT_SET_NO": 999, "REV_AT_EPOCH": 3934, "BSTAR": 0, "MEAN_MOTION_DOT": -1.79e-06, "MEAN_MOTION_DDOT": 0}, "tle": {"line1": "1 36106U 09067A   25345.06920006 -.00000179  00000+0  00000+0 0  9996", "line2": "2 36106   0.0240 289.4565 0002387 339.7099 280.9264  1.00270749 39343"}}, "geometry": {"type": "Point", "coordinates": [-31.10734639794877, 0.013956884688842949]}}, {"type": "Feature", "properties": {"norad_id": 36131, "name": "DIRECTV 12", "group": "intelsat", "lat": 0.0111853748562066, "lon": 141.00637237057552, "alt_km": 35787.841117434946, "timestamp": "2025-12-11T10:53:15.553250+00:00", "meta": {"OBJECT_NAME": "DIRECTV 12", "OBJECT_ID": "2009-075A", "EPOCH": "2025-12-10T23:19:34.847040", "MEAN_MOTION": 1.0027091, "ECCENTRICITY": 4.06e-05, "INCLINATION": 0.04, "RA_OF_ASC_NODE": 149.0502, "ARG_OF_PERICENTER": 199.7409, "MEAN_ANOMALY": 338.3242, "EPHEMERIS_TYPE": 0, "CLASSIFICATION_TYPE": "U", "NORAD_CAT_ID": 36131, "ELEMENT_SET_NO": 999, "REV_AT_EPOCH": 4466, "BSTAR": 0, "MEAN_MOTION_DOT": -9.8e-07, "MEAN_MOTION_DDOT": 0}, "tle": {"line1": "1 36131U 09075A   25344.97193110 -.00000098  00000+0  00000+0 0  9990", "line2": "2 36131   0.0400 149.0502 0000406 199.7409 338.3242  1.00270910 44665"}}, "geometry": {"type": "Point", "coordinates": [141.00637237057552, 0.0111853748562066]}}, {"type": "Feature", "properties": {"norad_id": 36397, "name": "INTELSAT 16 (IS-16)", "group": "intelsat", "lat": -0.009793470391958659, "lon": 167.5024206541818, "alt_km": 35786.48102481802, "timestamp": "2025-12-11T10:53:15.553262+00:00", "meta": {"OBJECT_NAME": "INTELSAT 16 (IS-16)", "OBJECT_ID": "2010-006A", "EPOCH": "2025-12-11T02:52:38.385408", "MEAN_MOTION": 1.00272405, "ECCENTRICITY": 0.000216, "INCLINATION": 0.0107, "RA_OF_ASC_NODE": 319.6045, "ARG_OF_PERICENTER": 301.3038, "MEAN_ANOMALY": 146.1385, "EPHEMERIS_TYPE": 0, "CLASSIFICATION_TYPE": "U", "NORAD_CAT_ID": 36397, "ELEMENT_SET_NO": 999, "REV_AT_EPOCH": 5776, "BSTAR": 0, "MEAN_MOTION_DOT": -2.39e-06, "MEAN_MOTION_DDOT": 0}, "tle": {"line1": "1 36397U 10006A   25345.11988872 -.00000239  00000+0  00000+0 0  9991", "line2": "2 36397   0.0107 319.6045 0002160 301.3038 146.1385  1.00272405 57767"}}, "geometry": {"type": "Point", "coordinates": [167.5024206541818, -0.009793470391958659]}}, {"type": "Feature", "properties": {"norad_id": 37185, "name": "XM-5", "group": "intelsat", "lat": -0.02580940876332321, "lon": 128.51141699850137, "alt_km": 35780.78702460537, "timestamp": "2025-12-11T10:53:15.553274+00:00", "meta": {"OBJECT_NAME": "XM-5", "OBJECT_ID": "2010-053A", "EPOCH": "2025-12-10T23:47:38.630976", "MEAN_MOTION": 1.00269536, "ECCENTRICITY": 0.00015, "INCLINATION": 0.0597, "RA_OF_ASC_NODE": 272.8413, "ARG_OF_PERICENTER": 236.063, "MEAN_ANOMALY": 172.7614, "EPHEMERIS_TYPE": 0, "CLASSIFICATION_TYPE": "U", "NORAD_CAT_ID": 37185, "ELEMENT_SET_NO": 999, "REV_AT_EPOCH": 5559, "BSTAR": 0, "MEAN_MOTION_DOT": -1.7e-07, "MEAN_MOTION_DDOT": 0}, "tle": {"line1": "1 37185U 10053A   25344.99141934 -.00000017  00000+0  00000+0 0  9998", "line2": "2 37185   0.0597 272.8413 0001500 236.0630 172.7614  1.00269536 55594"}}, "geometry": {"type": "Point", "coordinates": [128.51141699850137, -0.02580940876332321]}}, {"type": "Feature", "properties": {"norad_id": 37238, "name": "INTELSAT 17 (IS-17)", "group": "intelsat", "lat": -0.0005996861755394641, "lon": -50.24242017167812, "alt_km": 35779.377864418515, "timestamp": "2025-12-11T10:53:15.553287+00:00", "meta": {"OBJECT_NAME": "INTELSAT 17 (IS-17)", "OBJECT_ID": "2010-065B", "EPOCH": "2025-12-11T03:33:12.001248", "MEAN_MOTION": 1.00270919, "ECCENTRICITY": 0.0002478, "INCLINATION": 0.0096, "RA_OF_ASC_NODE": 287.8523, "ARG_OF_PERICENTER": 333.2966, "MEAN_ANOMALY": 298.2763, "EPHEMERIS_TYPE": 0, "CLASSIFICATION_TYPE": "U", "NORAD_CAT_ID": 37238, "ELEMENT_SET_NO": 999, "REV_AT_EPOCH": 5136, "BSTAR": 0, "MEAN_MOTION_DOT": 4e-08, "MEAN_MOTION_DDOT": 0}, "tle": {"line1": "1 37238U 10065B   25345.14805557  .00000004  00000+0  00000+0 0  9991", "line2": "2 37238   0.0096 287.8523 0002478 333.2966 298.2763  1.00270919 51369"}}, "geometry": {"type": "Point", "coordinates": [-50.24242017167812, -0.0005996861755394641]}}, {"type": "Feature", "properties": {"norad_id": 37392, "name": "INTELSAT 28 (IS-28)", "group": "intelsat", "lat": 1.0418993059731398, "lon": -147.99791435948873, "alt_km": 35776.11317851297, "timestamp": "2025-12-11T10:53:15.553299+00:00", "meta": {"OBJECT_NAME": "INTELSAT 28 (IS-28)", "OBJECT_ID": "2011-016A", "EPOCH": "2025-12-11T03:05:14.675712", "MEAN_MOTION": 1.00272049, "ECCENTRICITY": 0.00039, "INCLINATION": 1.3208, "RA_OF_ASC_NODE": 85.0765, "ARG_OF_PERICENTER": 180.6237, "MEAN_ANOMALY": 189.0086, "EPHEMERIS_TYPE": 0, "CLASSIFICATION_TYPE": "U", "NORAD_CAT_ID": 37392, "ELEMENT_SET_NO": 999, "REV_AT_EPOCH": 5140, "BSTAR": 0, "MEAN_MOTION_DOT": -2.19e-06, "MEAN_MOTION_DDOT": 0}, "tle": {"line1": "1 37392U 11016A   25345.12864208 -.00000219  00000+0  00000+0 0  9994", "line2": "2 37392   1.3208  85.0765 0003900 180.6237 189.0086  1.00272049 51407"}}, "geometry": {"type": "Point", "coordinates": [-147.99791435948873, 1.0418993059731398]}}]}